{
    "links": {
        "self": "http://www.neowsapp.com/rest/v1/neo/3781251?api_key=iIulBulltgU6a56xZRHN4H3l9WmuAYTsLGpBGhQ2"
    },
    "id": "3781251",
    "neo_reference_id": "3781251",
    "name": "(2017 QN33)",
    "designation": "2017 QN33",
    "nasa_jpl_url": "http://ssd.jpl.nasa.gov/sbdb.cgi?sstr=3781251",
    "absolute_magnitude_h": 24.3,
    "estimated_diameter": {
        "kilometers": {
            "estimated_diameter_min": 0.0366906138,
            "estimated_diameter_max": 0.0820427065
        },
        "meters": {
            "estimated_diameter_min": 36.6906137531,
            "estimated_diameter_max": 82.0427064882
        },
        "miles": {
            "estimated_diameter_min": 0.0227984834,
            "estimated_diameter_max": 0.0509789586
        },
        "feet": {
            "estimated_diameter_min": 120.3760332259,
            "estimated_diameter_max": 269.1689931548
        }
    },
    "is_potentially_hazardous_asteroid": false,
    "close_approach_data": [
        {
            "close_approach_date": "2017-08-19",
            "close_approach_date_full": "2017-Aug-19 11:29",
            "epoch_date_close_approach": 1503142140000,
            "relative_velocity": {
                "kilometers_per_second": "7.3601930627",
                "kilometers_per_hour": "26496.6950255516",
                "miles_per_hour": "16464.015861849"
            },
            "miss_distance": {
                "astronomical": "0.0755855043",
                "lunar": "29.4027611727",
                "kilometers": "11307430.446155841",
                "miles": "7026111.4741229658"
            },
            "orbiting_body": "Earth"
        }
    ],
    "orbital_data": {
        "orbit_id": "6",
        "orbit_determination_date": "2017-12-28 06:24:00",
        "first_observation_date": "2017-08-28",
        "last_observation_date": "2017-09-24",
        "data_arc_in_days": 27,
        "observations_used": 50,
        "orbit_uncertainty": "7",
        "minimum_orbit_intersection": ".0741576",
        "jupiter_tisserand_invariant": "3.365",
        "epoch_osculation": "2459000.5",
        "eccentricity": ".5349513757106421",
        "semi_major_axis": "2.317117631984195",
        "inclination": "6.927284316466578",
        "ascending_node_longitude": "338.8676424192977",
        "orbital_period": "1288.310510151665",
        "perihelion_distance": "1.077572367070865",
        "perihelion_argument": "340.383414289275",
        "aphelion_distance": "3.556662896897525",
        "perihelion_time": "2459267.416596734906",
        "mean_anomaly": "285.4139634293181",
        "mean_motion": ".2794357394147311",
        "equinox": "J2000",
        "orbit_class": {
            "orbit_class_type": "AMO",
            "orbit_class_description": "Near-Earth asteroid orbits similar to that of 1221 Amor",
            "orbit_class_range": "1.017 AU < q (perihelion) < 1.3 AU"
        }
    },
    "is_sentry_object": false
}